start=new Date('2022-09-19T00:00:00.000Z').valueOf();
sats=[{"ECCENTRICITY":"0.00017840","OBJECT_ID":"2022-045BB","SITE":"AFETR","RA_OF_ASC_NODE":"110.5255","EPOCH":"2022-09-18T21:10:48.408672","SEMIMAJOR_AXIS":"6917.914","FILE":"3577422","COUNTRY_CODE":"US","REV_AT_EPOCH":"2466","REF_FRAME":"TEME","INCLINATION":"53.2147","GP_ID":"212968083","CLASSIFICATION_TYPE":"U","MEAN_MOTION":"15.08828891","MEAN_MOTION_DDOT":"0.0000000000000","BSTAR":"0.00005523300000","CENTER_NAME":"EARTH","OBJECT_NAME":"STARLINK-3793","PERIOD":"95.438","APOAPSIS":"541.014","TIME_SYSTEM":"UTC","ELEMENT_SET_NO":"999","MEAN_ELEMENT_THEORY":"SGP4","TLE_LINE1":"1 52380U 22045BB  22261.88250473  .00000591  00000-0  55233-4 0  9998","EPHEMERIS_TYPE":"0","ARG_OF_PERICENTER":"36.5114","PERIAPSIS":"538.545","DECAY_DATE":null,"MEAN_ANOMALY":"323.6000","RCS_SIZE":"LARGE","OBJECT_TYPE":"PAYLOAD","LAUNCH_DATE":"2022-04-29","TLE_LINE2":"2 52380  53.2147 110.5255 0001784  36.5114 323.6000 15.08828891 24663","MEAN_MOTION_DOT":"0.00000591","NORAD_CAT_ID":"52380"},{"SITE":"AFETR","OBJECT_ID":"2022-045BC","RA_OF_ASC_NODE":"120.7372","ECCENTRICITY":"0.00018970","COUNTRY_CODE":"US","FILE":"3577422","SEMIMAJOR_AXIS":"6917.912","EPOCH":"2022-09-18T19:59:13.082784","MEAN_MOTION":"15.08829711","CLASSIFICATION_TYPE":"U","GP_ID":"212966605","INCLINATION":"53.2185","REF_FRAME":"TEME","REV_AT_EPOCH":"2452","TIME_SYSTEM":"UTC","APOAPSIS":"541.089","PERIOD":"95.438","ELEMENT_SET_NO":"999","OBJECT_NAME":"STARLINK-3803","CENTER_NAME":"EARTH","BSTAR":"0.00000559270000","MEAN_MOTION_DDOT":"0.0000000000000","TLE_LINE1":"1 52381U 22045BC  22261.83279031 -.00000199  00000-0  55927-5 0  9991","MEAN_ELEMENT_THEORY":"SGP4","DECAY_DATE":null,"PERIAPSIS":"538.465","ARG_OF_PERICENTER":"50.2206","EPHEMERIS_TYPE":"0","TLE_LINE2":"2 52381  53.2185 120.7372 0001897  50.2206 309.8953 15.08829711 24529","LAUNCH_DATE":"2022-04-29","OBJECT_TYPE":"PAYLOAD","RCS_SIZE":"LARGE","MEAN_ANOMALY":"309.8953","NORAD_CAT_ID":"52381","MEAN_MOTION_DOT":"-0.00000199"},{"MEAN_MOTION_DOT":"0.00002792","NORAD_CAT_ID":"52382","MEAN_ANOMALY":"311.1270","RCS_SIZE":"LARGE","OBJECT_TYPE":"PAYLOAD","TLE_LINE2":"2 52382  53.2206 120.4508 0001742  48.9872 311.1270 15.08845370 24532","LAUNCH_DATE":"2022-04-29","EPHEMERIS_TYPE":"0","ARG_OF_PERICENTER":"48.9872","DECAY_DATE":null,"PERIAPSIS":"538.524","MEAN_ELEMENT_THEORY":"SGP4","TLE_LINE1":"1 52382U 22045BD  22261.89534824  .00002792  00000-0  19345-3 0  9994","MEAN_MOTION_DDOT":"0.0000000000000","CENTER_NAME":"EARTH","BSTAR":"0.00019345000000","OBJECT_NAME":"STARLINK-3799","APOAPSIS":"540.934","PERIOD":"95.437","TIME_SYSTEM":"UTC","ELEMENT_SET_NO":"999","REF_FRAME":"TEME","REV_AT_EPOCH":"2453","GP_ID":"212967359","INCLINATION":"53.2206","MEAN_MOTION":"15.08845370","CLASSIFICATION_TYPE":"U","EPOCH":"2022-09-18T21:29:18.087936","FILE":"3577422","SEMIMAJOR_AXIS":"6917.864","COUNTRY_CODE":"US","ECCENTRICITY":"0.00017420","SITE":"AFETR","OBJECT_ID":"2022-045BD","RA_OF_ASC_NODE":"120.4508"},{"EPOCH":"2022-09-19T00:00:00.999648","COUNTRY_CODE":"US","SEMIMAJOR_AXIS":"6917.962","FILE":"3577422","ECCENTRICITY":"0.00019200","SITE":"AFETR","OBJECT_ID":"2022-045BE","RA_OF_ASC_NODE":"109.9896","BSTAR":"0.00308460000000","CENTER_NAME":"EARTH","MEAN_MOTION_DDOT":"0.0000000000000","APOAPSIS":"541.155","ELEMENT_SET_NO":"999","PERIOD":"95.439","TIME_SYSTEM":"UTC","OBJECT_NAME":"STARLINK-3811","INCLINATION":"53.2168","GP_ID":"212967779","REV_AT_EPOCH":"130","REF_FRAME":"TEME","CLASSIFICATION_TYPE":"U","MEAN_MOTION":"15.08813289","EPHEMERIS_TYPE":"0","PERIAPSIS":"538.499","DECAY_DATE":null,"ARG_OF_PERICENTER":"45.1488","MEAN_ELEMENT_THEORY":"SGP4","TLE_LINE1":"1 52383U 22045BE  22262.00001157  .00049110  00000-0  30846-2 0  9990","MEAN_MOTION_DOT":"0.00049110","NORAD_CAT_ID":"52383","RCS_SIZE":"LARGE","MEAN_ANOMALY":"53.6110","LAUNCH_DATE":"2022-04-29","TLE_LINE2":"2 52383  53.2168 109.9896 0001920  45.1488  53.6110 15.08813289  1307","OBJECT_TYPE":"PAYLOAD"},{"SITE":"AFETR","OBJECT_ID":"2022-049A","RA_OF_ASC_NODE":"1.4384","ECCENTRICITY":"0.00016540","COUNTRY_CODE":"US","FILE":"3577422","SEMIMAJOR_AXIS":"6917.897","EPOCH":"2022-09-18T16:16:38.653824","MEAN_MOTION":"15.08834407","CLASSIFICATION_TYPE":"U","GP_ID":"212967786","INCLINATION":"53.2188","REF_FRAME":"TEME","REV_AT_EPOCH":"2068","APOAPSIS":"540.907","PERIOD":"95.438","ELEMENT_SET_NO":"999","TIME_SYSTEM":"UTC","OBJECT_NAME":"STARLINK-3870","CENTER_NAME":"EARTH","BSTAR":"-0.00001602000000","MEAN_MOTION_DDOT":"0.0000000000000","TLE_LINE1":"1 52451U 22049A   22261.67822516 -.00000543  00000-0 -16020-4 0  9991","MEAN_ELEMENT_THEORY":"SGP4","DECAY_DATE":null,"PERIAPSIS":"538.618","ARG_OF_PERICENTER":"53.0028","EPHEMERIS_TYPE":"0","TLE_LINE2":"2 52451  53.2188   1.4384 0001654  53.0028 307.1116 15.08834407 20685","LAUNCH_DATE":"2022-05-06","OBJECT_TYPE":"PAYLOAD","RCS_SIZE":"LARGE","MEAN_ANOMALY":"307.1116","NORAD_CAT_ID":"52451","MEAN_MOTION_DOT":"-0.00000543"},{"RA_OF_ASC_NODE":"1.9353","SITE":"AFETR","OBJECT_ID":"2022-049B","ECCENTRICITY":"0.00013470","COUNTRY_CODE":"US","FILE":"3577422","SEMIMAJOR_AXIS":"6917.878","EPOCH":"2022-09-18T13:39:02.398464","MEAN_MOTION":"15.08840670","CLASSIFICATION_TYPE":"U","GP_ID":"212967676","INCLINATION":"53.2196","REF_FRAME":"TEME","REV_AT_EPOCH":"2066","ELEMENT_SET_NO":"999","APOAPSIS":"540.675","PERIOD":"95.438","TIME_SYSTEM":"UTC","OBJECT_NAME":"STARLINK-3909","CENTER_NAME":"EARTH","BSTAR":"0.00007269600000","MEAN_MOTION_DDOT":"0.0000000000000","TLE_LINE1":"1 52452U 22049B   22261.56877776  .00000869  00000-0  72696-4 0  9998","MEAN_ELEMENT_THEORY":"SGP4","DECAY_DATE":null,"PERIAPSIS":"538.812","ARG_OF_PERICENTER":"62.2688","EPHEMERIS_TYPE":"0","TLE_LINE2":"2 52452  53.2196   1.9353 0001347  62.2688 297.8441 15.08840670 20662","LAUNCH_DATE":"2022-05-06","OBJECT_TYPE":"PAYLOAD","RCS_SIZE":"LARGE","MEAN_ANOMALY":"297.8441","NORAD_CAT_ID":"52452","MEAN_MOTION_DOT":"0.00000869"},{"INCLINATION":"53.2199","GP_ID":"212967520","REV_AT_EPOCH":"2067","REF_FRAME":"TEME","MEAN_MOTION":"15.08832748","CLASSIFICATION_TYPE":"U","BSTAR":"0.00011125000000","CENTER_NAME":"EARTH","MEAN_MOTION_DDOT":"0.0000000000000","PERIOD":"95.438","APOAPSIS":"541.170","TIME_SYSTEM":"UTC","ELEMENT_SET_NO":"999","OBJECT_NAME":"STARLINK-3872","ECCENTRICITY":"0.00020270","OBJECT_ID":"2022-049C","SITE":"AFETR","RA_OF_ASC_NODE":"1.7660","EPOCH":"2022-09-18T14:30:40.032864","COUNTRY_CODE":"US","SEMIMAJOR_AXIS":"6917.903","FILE":"3577422","RCS_SIZE":"LARGE","MEAN_ANOMALY":"319.7235","LAUNCH_DATE":"2022-05-06","TLE_LINE2":"2 52453  53.2199   1.7660 0002027  40.3907 319.7235 15.08832748 20675","OBJECT_TYPE":"PAYLOAD","MEAN_MOTION_DOT":"0.00001482","NORAD_CAT_ID":"52453","MEAN_ELEMENT_THEORY":"SGP4","TLE_LINE1":"1 52453U 22049C   22261.60463001  .00001482  00000-0  11125-3 0  9997","EPHEMERIS_TYPE":"0","PERIAPSIS":"538.365","DECAY_DATE":null,"ARG_OF_PERICENTER":"40.3907"},{"MEAN_MOTION_DOT":"0.00001372","NORAD_CAT_ID":"52454","MEAN_ANOMALY":"301.8860","RCS_SIZE":"LARGE","OBJECT_TYPE":"PAYLOAD","LAUNCH_DATE":"2022-05-06","TLE_LINE2":"2 52454  53.2209   1.7550 0001522  58.2280 301.8860 15.08844834 20672","EPHEMERIS_TYPE":"0","ARG_OF_PERICENTER":"58.2280","PERIAPSIS":"538.678","DECAY_DATE":null,"MEAN_ELEMENT_THEORY":"SGP4","TLE_LINE1":"1 52454U 22049D   22261.60830941  .00001372  00000-0  10427-3 0  9991","MEAN_MOTION_DDOT":"0.0000000000000","BSTAR":"0.00010427000000","CENTER_NAME":"EARTH","OBJECT_NAME":"STARLINK-3888","APOAPSIS":"540.784","TIME_SYSTEM":"UTC","PERIOD":"95.437","ELEMENT_SET_NO":"999","REV_AT_EPOCH":"2067","REF_FRAME":"TEME","INCLINATION":"53.2209","GP_ID":"212968244","MEAN_MOTION":"15.08844834","CLASSIFICATION_TYPE":"U","EPOCH":"2022-09-18T14:35:57.933024","SEMIMAJOR_AXIS":"6917.866","FILE":"3577422","COUNTRY_CODE":"US","ECCENTRICITY":"0.00015220","OBJECT_ID":"2022-049D","SITE":"AFETR","RA_OF_ASC_NODE":"1.7550"},{"MEAN_ELEMENT_THEORY":"SGP4","TLE_LINE1":"1 52455U 22049E   22261.66814621  .00001919  00000-0  13861-3 0  9997","EPHEMERIS_TYPE":"0","DECAY_DATE":null,"PERIAPSIS":"538.686","ARG_OF_PERICENTER":"55.8004","RCS_SIZE":"LARGE","MEAN_ANOMALY":"304.3131","TLE_LINE2":"2 52455  53.2202   1.4835 0001505  55.8004 304.3131 15.08845860 20687","LAUNCH_DATE":"2022-05-06","OBJECT_TYPE":"PAYLOAD","MEAN_MOTION_DOT":"0.00001919","NORAD_CAT_ID":"52455","ECCENTRICITY":"0.00015050","SITE":"AFETR","OBJECT_ID":"2022-049E","RA_OF_ASC_NODE":"1.4835","EPOCH":"2022-09-18T16:02:07.832544","COUNTRY_CODE":"US","FILE":"3577422","SEMIMAJOR_AXIS":"6917.862","GP_ID":"212967372","INCLINATION":"53.2202","REF_FRAME":"TEME","REV_AT_EPOCH":"2068","MEAN_MOTION":"15.08845860","CLASSIFICATION_TYPE":"U","CENTER_NAME":"EARTH","BSTAR":"0.00013861000000","MEAN_MOTION_DDOT":"0.0000000000000","TIME_SYSTEM":"UTC","APOAPSIS":"540.769","PERIOD":"95.437","ELEMENT_SET_NO":"999","OBJECT_NAME":"STARLINK-3890"},{"GP_ID":"212968091","INCLINATION":"53.2221","REF_FRAME":"TEME","REV_AT_EPOCH":"2069","CLASSIFICATION_TYPE":"U","MEAN_MOTION":"15.08859118","CENTER_NAME":"EARTH","BSTAR":"-0.00003227100000","MEAN_MOTION_DDOT":"0.0000000000000","APOAPSIS":"540.806","PERIOD":"95.436","ELEMENT_SET_NO":"999","TIME_SYSTEM":"UTC","OBJECT_NAME":"STARLINK-3896","ECCENTRICITY":"0.00016180","OBJECT_ID":"2022-049F","SITE":"AFETR","RA_OF_ASC_NODE":"1.2057","EPOCH":"2022-09-18T17:32:12.401376","COUNTRY_CODE":"US","FILE":"3577422","SEMIMAJOR_AXIS":"6917.822","RCS_SIZE":"MEDIUM","MEAN_ANOMALY":"305.9111","TLE_LINE2":"2 52456  53.2221   1.2057 0001618  54.2031 305.9111 15.08859118 20698","LAUNCH_DATE":"2022-05-06","OBJECT_TYPE":"PAYLOAD","MEAN_MOTION_DOT":"-0.00000802","NORAD_CAT_ID":"52456","MEAN_ELEMENT_THEORY":"SGP4","TLE_LINE1":"1 52456U 22049F   22261.73069909 -.00000802  00000-0 -32271-4 0  9996","EPHEMERIS_TYPE":"0","DECAY_DATE":null,"PERIAPSIS":"538.568","ARG_OF_PERICENTER":"54.2031"}];
